1 27424U 02022A   12019.18970871  .00000621  00000-0  14779-3 0  1867
2 27424 098.2191 321.7783 0001283 086.1998 273.9353 14.57120342516527